[{"OBJECT_NAME":"STARLINK-4599","OBJECT_ID":"2022-104AV","EPOCH":"2026-03-09T18:26:34.992384","MEAN_MOTION":15.08828523,"ECCENTRICITY":0.00016137,"INCLINATION":53.2172,"RA_OF_ASC_NODE":233.2953,"ARG_OF_PERICENTER":87.8933,"MEAN_ANOMALY":272.2244,"EPHEMERIS_TYPE":0,"CLASSIFICATION_TYPE":"U","NORAD_CAT_ID":53631,"ELEMENT_SET_NO":999,"REV_AT_EPOCH":19577,"BSTAR":-2.1432008e-5,"MEAN_MOTION_DOT":-6.29e-6,"MEAN_MOTION_DDOT":0},{"OBJECT_NAME":"SL-24 PLAT","OBJECT_ID":"2014-033AR","EPOCH":"2026-03-09T22:47:27.152448","MEAN_MOTION":15.0919716,"ECCENTRICITY":0.00052059,"INCLINATION":98.0981,"RA_OF_ASC_NODE":61.9435,"ARG_OF_PERICENTER":212.2329,"MEAN_ANOMALY":147.8581,"EPHEMERIS_TYPE":0,"CLASSIFICATION_TYPE":"U","NORAD_CAT_ID":40049,"ELEMENT_SET_NO":999,"REV_AT_EPOCH":63724,"BSTAR":0.00046923352,"MEAN_MOTION_DOT":7.393e-5,"MEAN_MOTION_DDOT":0}]
